$$SOE
2460721.500000000, A.D. 2025-Feb-15 00:00:00.0000, 3.953549838632599E+08, -3.745971411513330E+07, -5.555371330770718E+07,
2460728.500000000, A.D. 2025-Feb-22 00:00:00.0000, 3.950459141592175E+08, -2.626685694126943E+07, -5.576626666027071E+07,
2460735.500000000, A.D. 2025-Mar-01 00:00:00.0000, 3.944368118544497E+08, -1.505409370034261E+07, -5.593646388928551E+07,
2460742.500000000, A.D. 2025-Mar-08 00:00:00.0000, 3.935255230096802E+08, -3.829839128410839E+06, -5.606380457499944E+07,
2460749.500000000, A.D. 2025-Mar-15 00:00:00.0000, 3.923101252321476E+08, 7.397336121430464E+06, -5.614781757057583E+07,
2460756.500000000, A.D. 2025-Mar-22 00:00:00.0000, 3.907889355224522E+08, 1.861871145368672E+07, -5.618806232353109E+07,
2460763.500000000, A.D. 2025-Mar-29 00:00:00.0000, 3.889605194963021E+08, 2.982542068429199E+07, -5.618413052148032E+07,
2460770.500000000, A.D. 2025-Apr-05 00:00:00.0000, 3.868237022659147E+08, 4.100845793242903E+07, -5.613564783038789E+07,
2460777.500000000, A.D. 2025-Apr-12 00:00:00.0000, 3.843775790145277E+08, 5.215868517365820E+07, -5.604227553497085E+07,
2460784.500000000, A.D. 2025-Apr-19 00:00:00.0000, 3.816215250344816E+08, 6.326684058935364E+07, -5.590371213070789E+07,
2460791.500000000, A.D. 2025-Apr-26 00:00:00.0000, 3.785552054552495E+08, 7.432354752294001E+07, -5.571969490307927E+07,
2460798.500000000, A.D. 2025-May-03 00:00:00.0000, 3.751785847270725E+08, 8.531932407278736E+07, -5.549000149650737E+07,
2460805.500000000, A.D. 2025-May-10 00:00:00.0000, 3.714919358384274E+08, 9.624459333798261E+07, -5.521445146806640E+07,
2460812.500000000, A.D. 2025-May-17 00:00:00.0000, 3.674958492518502E+08, 1.070896942800286E+08, -5.489290782547405E+07,
2460819.500000000, A.D. 2025-May-24 00:00:00.0000, 3.631912416784490E+08, 1.178448931458147E+08, -5.452527856230742E+07,
2460826.500000000, A.D. 2025-May-31 00:00:00.0000, 3.585793650527413E+08, 1.285003957568969E+08, -5.411151819539247E+07,
2460833.500000000, A.D. 2025-Jun-07 00:00:00.0000, 3.536618152456128E+08, 1.390463618596340E+08, -5.365162915993144E+07,
2460840.500000000, A.D. 2025-Jun-14 00:00:00.0000, 3.484405380907512E+08, 1.494729208591728E+08, -5.314566289079457E+07,
2460847.500000000, A.D. 2025-Jun-21 00:00:00.0000, 3.429178338878537E+08, 1.597701856493686E+08, -5.259372096131411E+07,
2460854.500000000, A.D. 2025-Jun-28 00:00:00.0000, 3.370963634526642E+08, 1.699282662765525E+08, -5.199595641370355E+07,
2460861.500000000, A.D. 2025-Jul-05 00:00:00.0000, 3.309791541354866E+08, 1.799372855635953E+08, -5.135257495610885E+07,
2460868.500000000, A.D. 2025-Jul-12 00:00:00.0000, 3.245696045590491E+08, 1.897873958551608E+08, -5.066383597375892E+07,
2460875.500000000, A.D. 2025-Jul-19 00:00:00.0000, 3.178714882101434E+08, 1.994687962688949E+08, -4.993005340990581E+07,
2460882.500000000, A.D. 2025-Jul-26 00:00:00.0000, 3.108889560417715E+08, 2.089717503486490E+08, -4.915159653176666E+07,
2460889.500000000, A.D. 2025-Aug-02 00:00:00.0000, 3.036265380993877E+08, 2.182866040866189E+08, -4.832889057678510E+07,
2460896.500000000, A.D. 2025-Aug-09 00:00:00.0000, 2.960891441436077E+08, 2.274038042382555E+08, -4.746241727321301E+07,
2460903.500000000, A.D. 2025-Aug-16 00:00:00.0000, 2.882820632964579E+08, 2.363139168009180E+08, -4.655271523777723E+07,
2460910.500000000, A.D. 2025-Aug-23 00:00:00.0000, 2.802109629584059E+08, 2.450076456053931E+08, -4.560038026740471E+07,
2460917.500000000, A.D. 2025-Aug-30 00:00:00.0000, 2.718818872881087E+08, 2.534758516639448E+08, -4.460606549009559E+07,
2460924.500000000, A.D. 2025-Sep-06 00:00:00.0000, 2.633012537953438E+08, 2.617095741979635E+08, -4.357048115699388E+07,
2460931.500000000, A.D. 2025-Sep-13 00:00:00.0000, 2.544758463512786E+08, 2.697000507848368E+08, -4.249439411993586E+07,
2460938.500000000, A.D. 2025-Sep-20 00:00:00.0000, 2.454128078794281E+08, 2.774387348997211E+08, -4.137862742647029E+07,
2460945.500000000, A.D. 2025-Sep-27 00:00:00.0000, 2.361196337797551E+08, 2.849173138717506E+08, -4.022405987220368E+07,
2460952.500000000, A.D. 2025-Oct-04 00:00:00.0000, 2.266041640634659E+08, 2.921277276991704E+08, -3.903162527783950E+07,
2460959.500000000, A.D. 2025-Oct-11 00:00:00.0000, 2.168745738271571E+08, 2.990621876873878E+08, -3.780231153155531E+07,
2460966.500000000, A.D. 2025-Oct-18 00:00:00.0000, 2.069393623615323E+08, 3.057131945427266E+08, -3.653715944459173E+07,
2460973.500000000, A.D. 2025-Oct-25 00:00:00.0000, 1.968073410544918E+08, 3.120735558403267E+08, -3.523726143275551E+07,
2460980.500000000, A.D. 2025-Nov-01 00:00:00.0000, 1.864876201569949E+08, 3.181364027900136E+08, -3.390376002829227E+07,
2460987.500000000, A.D. 2025-Nov-08 00:00:00.0000, 1.759895944838367E+08, 3.238952061786294E+08, -3.253784623119138E+07,
2460994.500000000, A.D. 2025-Nov-15 00:00:00.0000, 1.653229282431585E+08, 3.293437913425621E+08, -3.114075772274666E+07,
2461001.500000000, A.D. 2025-Nov-22 00:00:00.0000, 1.544975394517380E+08, 3.344763523065723E+08, -2.971377696603724E+07,
2461008.500000000, A.D. 2025-Nov-29 00:00:00.0000, 1.435235838463556E+08, 3.392874661431017E+08, -2.825822909361243E+07,
2461015.500000000, A.D. 2025-Dec-06 00:00:00.0000, 1.324114360820588E+08, 3.437721073338757E+08, -2.677547939185067E+07,
2461022.500000000, A.D. 2025-Dec-13 00:00:00.0000, 1.211716687184383E+08, 3.479256586900964E+08, -2.526693070478161E+07,
2461029.500000000, A.D. 2025-Dec-20 00:00:00.0000, 1.098150325664682E+08, 3.517439197992396E+08, -2.373402100538373E+07,
2461036.500000000, A.D. 2025-Dec-27 00:00:00.0000, 9.835243741154917E+07, 3.552231155370962E+08, -2.217822083663128E+07,
2461043.500000000, A.D. 2026-Jan-03 00:00:00.0000, 8.679493174442913E+07, 3.583599039821682E+08, -2.060103055108209E+07,
2461050.500000000, A.D. 2026-Jan-10 00:00:00.0000, 7.515368170531148E+07, 3.611513830171351E+08, -1.900397742767729E+07,
2461057.500000000, A.D. 2026-Jan-17 00:00:00.0000, 6.343994957396956E+07, 3.635950954983445E+08, -1.738861270825709E+07,
2461064.500000000, A.D. 2026-Jan-24 00:00:00.0000, 5.166507198654793E+07, 3.656890329963961E+08, -1.575650857299468E+07,
2461071.500000000, A.D. 2026-Jan-31 00:00:00.0000, 3.984043800603172E+07, 3.674316380889708E+08, -1.410925507155885E+07,
2461078.500000000, A.D. 2026-Feb-07 00:00:00.0000, 2.797746721103898E+07, 3.688218051457795E+08, -1.244845703452222E+07,
2461085.500000000, A.D. 2026-Feb-14 00:00:00.0000, 1.608758815771666E+07, 3.698588795967060E+08, -1.077573100377569E+07,
2461092.500000000, A.D. 2026-Feb-21 00:00:00.0000, 4.182217701836768E+06, 3.705426562768790E+08, -9.092702184779823E+06,
2461099.500000000, A.D. 2026-Feb-28 00:00:00.0000, -7.727259805005610E+06, 3.708733780293810E+08, -7.401001241616860E+06,
2461106.500000000, A.D. 2026-Mar-07 00:00:00.0000, -1.962951540580859E+07, 3.708517326453115E+08, -5.702260919481441E+06,
2461113.500000000, A.D. 2026-Mar-14 00:00:00.0000, -3.151329765241139E+07, 3.704788458426667E+08, -3.998112952572986E+06,
2461120.500000000, A.D. 2026-Mar-21 00:00:00.0000, -4.336745207919737E+07, 3.697562732356923E+08, -2.290185197544470E+06,
2461127.500000000, A.D. 2026-Mar-28 00:00:00.0000, -5.518093996296857E+07, 3.686859923825296E+08, -5.800987373451293E+05,
2461134.500000000, A.D. 2026-Apr-04 00:00:00.0000, -6.694285689750700E+07, 3.672703940054021E+08, 1.130535009303436E+06,
2461141.500000000, A.D. 2026-Apr-11 00:00:00.0000, -7.864245084161986E+07, 3.655122720901043E+08, 2.840117107431412E+06,
2461148.500000000, A.D. 2026-Apr-18 00:00:00.0000, -9.026913941980320E+07, 3.634148129307035E+08, 4.547063829115182E+06,
2461155.500000000, A.D. 2026-Apr-25 00:00:00.0000, -1.018125263734611E+08, 3.609815832098163E+08, 6.249809268351063E+06,
2461162.500000000, A.D. 2026-May-02 00:00:00.0000, -1.132624170819628E+08, 3.582165171609728E+08, 7.946807834019393E+06,
2461169.500000000, A.D. 2026-May-09 00:00:00.0000, -1.246088329873750E+08, 3.551239028222796E+08, 9.636536596787080E+06,
2461176.500000000, A.D. 2026-May-16 00:00:00.0000, -1.358420245144874E+08, 3.517083675961423E+08, 1.131749746022744E+07,
2461183.500000000, A.D. 2026-May-23 00:00:00.0000, -1.469524824156547E+08, 3.479748642191137E+08, 1.298821922955889E+07,
2461190.500000000, A.D. 2026-May-30 00:00:00.0000, -1.579309496075269E+08, 3.439286575511452E+08, 1.464725979022323E+07,
2461197.500000000, A.D. 2026-Jun-06 00:00:00.0000, -1.687684338053412E+08, 3.395753089991328E+08, 1.629320815435404E+07,
2461204.500000000, A.D. 2026-Jun-13 00:00:00.0000, -1.794562172839428E+08, 3.349206588529547E+08, 1.792468605295621E+07,
2461211.500000000, A.D. 2026-Jun-20 00:00:00.0000, -1.899858642730294E+08, 3.299708095429038E+08, 1.954034935737434E+07,
2461218.500000000, A.D. 2026-Jun-27 00:00:00.0000, -2.003492276929518E+08, 3.247321095601295E+08, 2.113888945713997E+07,
2461225.500000000, A.D. 2026-Jul-04 00:00:00.0000, -2.105384552436287E+08, 3.192111373380767E+08, 2.271903453094894E+07,
2461232.500000000, A.D. 2026-Jul-11 00:00:00.0000, -2.205459946123997E+08, 3.134146850316383E+08, 2.427955067763169E+07,
2461239.500000000, A.D. 2026-Jul-18 00:00:00.0000, -2.303645977334882E+08, 3.073497422857169E+08, 2.581924290240395E+07,
2461246.500000000, A.D. 2026-Jul-25 00:00:00.0000, -2.399873241043277E+08, 3.010234800585027E+08, 2.733695595879695E+07,
2461253.500000000, A.D. 2026-Aug-01 00:00:00.0000, -2.494075431439781E+08, 2.944432345098844E+08, 2.883157504102401E+07,
2461260.500000000, A.D. 2026-Aug-08 00:00:00.0000, -2.586189354151602E+08, 2.876164909731306E+08, 3.030202630786960E+07,
2461267.500000000, A.D. 2026-Aug-15 00:00:00.0000, -2.676154923341323E+08, 2.805508685093648E+08, 3.174727724112652E+07,
2461274.500000000, A.D. 2026-Aug-22 00:00:00.0000, -2.763915151722820E+08, 2.732541063109614E+08, 3.316633701303123E+07,
2461281.500000000, A.D. 2026-Aug-29 00:00:00.0000, -2.849416156841291E+08, 2.657340506239229E+08, 3.455825696587443E+07,
2461288.500000000, A.D. 2026-Sep-05 00:00:00.0000, -2.932607162702532E+08, 2.579986393585915E+08, 3.592213077929929E+07,
$$EOE